[{"OBJECT_NAME":"STARLINK-3771","OBJECT_ID":"2022-041AJ","EPOCH":"2026-03-09T11:55:13.582272","MEAN_MOTION":15.08837885,"ECCENTRICITY":0.00011544,"INCLINATION":53.216,"RA_OF_ASC_NODE":99.9971,"ARG_OF_PERICENTER":87.7529,"MEAN_ANOMALY":272.3596,"EPHEMERIS_TYPE":0,"CLASSIFICATION_TYPE":"U","NORAD_CAT_ID":52293,"ELEMENT_SET_NO":999,"REV_AT_EPOCH":21447,"BSTAR":-3.7558442e-5,"MEAN_MOTION_DOT":-8.85e-6,"MEAN_MOTION_DDOT":0},{"OBJECT_NAME":"ICEYE-X67","OBJECT_ID":"2025-248K","EPOCH":"2026-03-09T22:00:01.999584","MEAN_MOTION":15.09405994,"ECCENTRICITY":0.00063951,"INCLINATION":45.4045,"RA_OF_ASC_NODE":295.7576,"ARG_OF_PERICENTER":209.4534,"MEAN_ANOMALY":51.9892,"EPHEMERIS_TYPE":0,"CLASSIFICATION_TYPE":"U","NORAD_CAT_ID":66302,"ELEMENT_SET_NO":999,"REV_AT_EPOCH":578,"BSTAR":-0.000164009,"MEAN_MOTION_DOT":-2.917e-5,"MEAN_MOTION_DDOT":0}]
